{
    "links": {
        "self": "http://www.neowsapp.com/rest/v1/neo/3986730?api_key=iIulBulltgU6a56xZRHN4H3l9WmuAYTsLGpBGhQ2"
    },
    "id": "3986730",
    "neo_reference_id": "3986730",
    "name": "(2020 BN)",
    "designation": "2020 BN",
    "nasa_jpl_url": "http://ssd.jpl.nasa.gov/sbdb.cgi?sstr=3986730",
    "absolute_magnitude_h": 27.768,
    "estimated_diameter": {
        "kilometers": {
            "estimated_diameter_min": 0.0074294211,
            "estimated_diameter_max": 0.0166126907
        },
        "meters": {
            "estimated_diameter_min": 7.4294211295,
            "estimated_diameter_max": 16.6126906791
        },
        "miles": {
            "estimated_diameter_min": 0.0046164268,
            "estimated_diameter_max": 0.0103226442
        },
        "feet": {
            "estimated_diameter_min": 24.3747420185,
            "estimated_diameter_max": 54.5035800875
        }
    },
    "is_potentially_hazardous_asteroid": false,
    "close_approach_data": [
        {
            "close_approach_date": "2020-01-21",
            "close_approach_date_full": "2020-Jan-21 23:56",
            "epoch_date_close_approach": 1579650960000,
            "relative_velocity": {
                "kilometers_per_second": "6.0746387062",
                "kilometers_per_hour": "21868.6993422287",
                "miles_per_hour": "13588.3593218421"
            },
            "miss_distance": {
                "astronomical": "0.025143588",
                "lunar": "9.780855732",
                "kilometers": "3761427.20895756",
                "miles": "2337242.488271928"
            },
            "orbiting_body": "Earth"
        },
        {
            "close_approach_date": "2113-03-15",
            "close_approach_date_full": "2113-Mar-15 03:53",
            "epoch_date_close_approach": 4518993180000,
            "relative_velocity": {
                "kilometers_per_second": "16.6975972594",
                "kilometers_per_hour": "60111.3501338789",
                "miles_per_hour": "37350.855309576"
            },
            "miss_distance": {
                "astronomical": "0.3656568628",
                "lunar": "142.2405196292",
                "kilometers": "54701487.825762236",
                "miles": "33989928.4010054168"
            },
            "orbiting_body": "Earth"
        }
    ],
    "orbital_data": {
        "orbit_id": "3",
        "orbit_determination_date": "2020-10-07 06:58:17",
        "first_observation_date": "2020-01-18",
        "last_observation_date": "2020-01-30",
        "data_arc_in_days": 12,
        "observations_used": 17,
        "orbit_uncertainty": "8",
        "minimum_orbit_intersection": ".0242786",
        "jupiter_tisserand_invariant": "3.869",
        "epoch_osculation": "2458869.5",
        "eccentricity": ".4555748719864858",
        "semi_major_axis": "1.851917090821967",
        "inclination": "4.414917182138615",
        "ascending_node_longitude": "305.5367168363985",
        "orbital_period": "920.514717198882",
        "perihelion_distance": "1.008230199241164",
        "perihelion_argument": "175.8311056610497",
        "aphelion_distance": "2.69560398240277",
        "perihelion_time": "2458870.505176237920",
        "mean_anomaly": "359.606890103015",
        "mean_motion": ".3910855451561673",
        "equinox": "J2000",
        "orbit_class": {
            "orbit_class_type": "APO",
            "orbit_class_description": "Near-Earth asteroid orbits which cross the Earth’s orbit similar to that of 1862 Apollo",
            "orbit_class_range": "a (semi-major axis) > 1.0 AU; q (perihelion) < 1.017 AU"
        }
    },
    "is_sentry_object": false
}